IRIDIUM 136             
1 42962U 17061H   24025.96100649  .00000541  00000+0  18596-3 0  9997
2 42962  86.3954  30.1617 0002372  87.9501 272.1966 14.34219122329671
